STARLINK-2737_new
1 18675C 21044AP  21326.17985294  .00003151  00000-0  21108-3 0  3269
2 18675  53.0558 312.9277 0001798  58.5035 357.1339 15.06403555    16
STARLINK-2737_old
1 28675C 21044AP  21325.13004300 -.00000319  00000-0 -21370-4 0  3250
2 28675  53.0554 317.6404 0001690  58.9730  60.3630 15.06394590    18
